SAUDISAT 2              
1 28371U 04025F   26140.41575313  .00000151  00000+0  44890-4 0  9999
2 28371  98.5509 139.6811 0025222  24.8408 335.3998 14.56664647161701
COSMOS 2407             
1 28380U 04028A   26140.31393536  .00000056  00000+0  41612-4 0  9999
2 28380  82.9590  95.4766 0038595 332.4065 180.4760 13.76332152 96044
COSMOS 2414             
1 28521U 05002A   26140.49343505  .00000076  00000+0  50518-4 0  9996
2 28521  82.9505  64.5924 0041325  49.6721 310.8040 13.87923538 79970
INMARSAT 4-F1           
1 28628U 05009A   26139.57683773  .00000029  00000+0  00000+0 0  9996
2 28628   5.1321  42.7058 0002546  11.3392 208.9801  1.00270854 77382
SJ-7                    
1 28737U 05024A   26140.53107205  .00005174  00000+0  23529-3 0  9994
2 28737  97.7302 169.8989 0017438 125.5705 234.7158 15.21068783143824
CUBESAT XI-V            
1 28895U 05043F   26140.40793633  .00000795  00000+0  13338-3 0  9993
2 28895  98.2955 295.4528 0012837 295.7094  64.2787 14.72547895 97668
HINODE (SOLAR-B)        
1 29479U 06041A   26140.04652231  .00000408  00000+0  78487-4 0  9997
2 29479  98.0559 156.6138 0017932  22.2342 337.9637 14.68576898 50742
SHIJIAN-6 02B (SJ-6 02B)
1 29506U 06046B   26140.55374491  .00001414  00000+0  11452-3 0  9994
2 29506  97.7153 169.7832 0012405 146.7643 213.4363 15.01292657 66591
DMSP 5D-3 F17 (USA 191) 
1 29522U 06050A   26140.52151006  .00000005  00000+0  24946-4 0  9997
2 29522  98.7384 147.6577 0010986 130.4570 229.7563 14.14987864  8512
LAPAN-TUBSAT            
1 29709U 07001A   26140.51079950  .00000292  00000+0  40120-4 0  9997
2 29709  98.1341 139.1126 0010667 277.9070  82.0933 14.85920020 47041
HAIYANG-1B              
1 31113U 07010A   26140.38643373  .00000041  00000+0  31645-4 0  9994
2 31113  98.3487 123.3121 0012252 285.7308  74.2524 14.31019278996653
COSMO-SKYMED 2          
1 32376U 07059A   26140.48171921  .00000227  00000+0  35010-4 0  9991
2 32376  97.8884 324.4820 0001459  90.1560 269.9820 14.82160163997890
CARTOSAT-2A             
1 32783U 08021A   26140.51511319  .00001058  00000+0  14921-3 0  9996
2 32783  97.7647 190.1661 0011264 194.3275 165.7619 14.79196838974713
CUTE-1.7+APD II (CO-65) 
1 32785U 08021C   26140.47028235  .00003061  00000+0  19685-3 0  9991
2 32785  97.8273 121.3219 0010664 117.7293 242.5018 15.09156147981019
SEEDS II (CO-66)        
1 32791U 08021J   26140.44576193  .00012815  00000+0  42104-3 0  9995
2 32791  97.7526 137.0429 0004684  69.5978 290.5765 15.31697844983048
YUBILEINY (RS30)        
1 32953U 08025A   26140.57496781  .00000135  00000+0  89581-3 0  9999
2 32953  82.5061  12.6178 0020051  14.4145 345.7503 12.43178818816261
FENGYUN 3A              
1 32958U 08026A   26140.34721463  .00000041  00000+0  39876-4 0  9997
2 32958  98.6875  81.7033 0008164 201.6214 158.4618 14.19564595931453
HUANJING 1A (HJ-1A)     
1 33320U 08041A   26140.52035131  .00001072  00000+0  13488-3 0  9993
2 33320  97.6675 127.4325 0017651 226.3675 133.6077 14.83917669954300
HUANJING 1B (HJ-1B)     
1 33321U 08041B   26140.54453816  .00001029  00000+0  13087-3 0  9997
2 33321  97.6514 130.7102 0034663 274.7593  84.9664 14.83266206954316
SHIJIAN-6 03A (SJ-6 03A)
1 33408U 08053A   26140.54328788  .00006543  00000+0  33538-3 0  9994
2 33408  97.8424 172.9073 0013121 105.7853 254.4827 15.16861038958777
SHIJIAN-6 03B (SJ-6 03B)
1 33409U 08053B   26140.49436684  .00000453  00000+0  37097-4 0  9993
2 33409  97.8581 159.9287 0020795 130.5295 229.7746 15.04216852958584
CHUANGXIN 1-02 (CX-1-02)
1 33434U 08056B   26140.52231782  .00000267  00000+0  12017-3 0  9997
2 33434  98.6144 167.0632 0013383 217.8505 142.1738 14.30147719914661
