OBJECT_NAME,OBJECT_ID,EPOCH,MEAN_MOTION,ECCENTRICITY,INCLINATION,RA_OF_ASC_NODE,ARG_OF_PERICENTER,MEAN_ANOMALY,EPHEMERIS_TYPE,CLASSIFICATION_TYPE,NORAD_CAT_ID,ELEMENT_SET_NO,REV_AT_EPOCH,BSTAR,MEAN_MOTION_DOT,MEAN_MOTION_DDOT
SAUDISAT 2,2004-025F,2026-05-20T09:58:41.070432,14.56664647,.0025222,98.5509,139.6811,24.8408,335.3998,0,U,28371,999,16170,.4489E-4,.151E-5,0
COSMOS 2407,2004-028A,2026-05-20T07:32:04.015104,13.76332152,.0038595,82.9590,95.4766,332.4065,180.4760,0,U,28380,999,9604,.41612E-4,.56E-6,0
COSMOS 2414,2005-002A,2026-05-20T11:50:32.788320,13.87923538,.0041325,82.9505,64.5924,49.6721,310.8040,0,U,28521,999,7997,.50518E-4,.76E-6,0
INMARSAT 4-F1,2005-009A,2026-05-19T13:50:38.779872,1.00270854,.00025468,5.1321,42.7058,11.3392,208.9801,0,U,28628,999,7738,0,.29E-6,0
SJ-7,2005-024A,2026-05-20T12:44:44.625120,15.21068783,.0017438,97.7302,169.8989,125.5705,234.7158,0,U,28737,999,14382,.23529E-3,.5174E-4,0
CUBESAT XI-V,2005-043F,2026-05-20T09:47:25.698912,14.72547895,.0012837,98.2955,295.4528,295.7094,64.2787,0,U,28895,999,9766,.13338E-3,.795E-5,0
HINODE (SOLAR-B),2006-041A,2026-05-20T01:06:59.527584,14.68576898,.00179327,98.0559,156.6138,22.2342,337.9637,0,U,29479,999,5074,.78487229E-4,.408E-5,0
SHIJIAN-6 02B (SJ-6 02B),2006-046B,2026-05-20T13:17:23.560224,15.01292657,.0012405,97.7153,169.7832,146.7643,213.4363,0,U,29506,999,6659,.11452E-3,.1414E-4,0
DMSP 5D-3 F17 (USA 191),2006-050A,2026-05-20T12:30:58.469184,14.14987864,.0010986,98.7384,147.6577,130.4570,229.7563,0,U,29522,999,851,.24946E-4,.5E-7,0
LAPAN-TUBSAT,2007-001A,2026-05-20T12:15:33.076800,14.85920020,.0010667,98.1341,139.1126,277.9070,82.0933,0,U,29709,999,4704,.4012E-4,.292E-5,0
HAIYANG-1B,2007-010A,2026-05-20T09:16:27.874272,14.31019278,.0012252,98.3487,123.3121,285.7308,74.2524,0,U,31113,999,99665,.31645E-4,.41E-6,0
COSMO-SKYMED 2,2007-059A,2026-05-20T11:33:40.539744,14.82160163,.0001459,97.8884,324.4820,90.1560,269.9820,0,U,32376,999,99789,.3501E-4,.227E-5,0
CARTOSAT-2A,2008-021A,2026-05-20T12:21:45.779616,14.79196838,.0011264,97.7647,190.1661,194.3275,165.7619,0,U,32783,999,97471,.14921E-3,.1058E-4,0
CUTE-1.7+APD II (CO-65),2008-021C,2026-05-20T11:17:12.395040,15.09156147,.0010664,97.8273,121.3219,117.7293,242.5018,0,U,32785,999,98101,.19685E-3,.3061E-4,0
SEEDS II (CO-66),2008-021J,2026-05-20T10:41:53.830752,15.31697844,.0004684,97.7526,137.0429,69.5978,290.5765,0,U,32791,999,98304,.42104E-3,.12815E-3,0
YUBILEINY (RS30),2008-025A,2026-05-20T13:47:57.218784,12.43178818,.0020051,82.5061,12.6178,14.4145,345.7503,0,U,32953,999,81626,.89581E-3,.135E-5,0
FENGYUN 3A,2008-026A,2026-05-20T08:19:59.344032,14.19564595,.0008164,98.6875,81.7033,201.6214,158.4618,0,U,32958,999,93145,.39876E-4,.41E-6,0
HUANJING 1A (HJ-1A),2008-041A,2026-05-20T12:29:18.353184,14.83917669,.0017651,97.6675,127.4325,226.3675,133.6077,0,U,33320,999,95430,.13488E-3,.1072E-4,0
HUANJING 1B (HJ-1B),2008-041B,2026-05-20T13:04:08.097024,14.83266206,.0034663,97.6514,130.7102,274.7593,84.9664,0,U,33321,999,95431,.13087E-3,.1029E-4,0
SHIJIAN-6 03A (SJ-6 03A),2008-053A,2026-05-20T13:02:20.072832,15.16861038,.0013121,97.8424,172.9073,105.7853,254.4827,0,U,33408,999,95877,.33538E-3,.6543E-4,0
SHIJIAN-6 03B (SJ-6 03B),2008-053B,2026-05-20T11:51:53.294976,15.04216852,.0020795,97.8581,159.9287,130.5295,229.7746,0,U,33409,999,95858,.37097E-4,.453E-5,0
CHUANGXIN 1-02 (CX-1-02),2008-056B,2026-05-20T12:32:08.259648,14.30147719,.0013383,98.6144,167.0632,217.8505,142.1738,0,U,33434,999,91466,.12017E-3,.267E-5,0
